LEDSAT                  
1 49069U 21073D   24203.16585164  .00026026  00000+0  10033-2 0  9992
2 49069  97.4365 274.0953 0019535 161.2363 198.9600 15.26124500161635
XW-3 (CAS-9)            
1 50466U 21131B   24203.59737862  .00001554  00000+0  51002-3 0  9992
2 50466  98.5284 288.5076 0004674  38.7593 321.3930 14.39738104134954
TEVEL-3                 
1 50988U 22002E   24203.58355479  .00627715  15577-3  20917-2 0  9990
2 50988  97.3679 281.6838 0009439 245.4745 114.5544 15.90162838140478
TEVEL-8                 
1 50989U 22002F   24203.25482833  .00620019  14986-3  21734-2 0  9991
2 50989  97.3690 281.4144 0009089 244.4300 115.6034 15.89157881140417
TEVEL-1                 
1 51013U 22002AF  24203.56235820  .00599222  13974-3  20878-2 0  9991
2 51013  97.3655 281.4833 0008983 242.9252 117.1105 15.89279003140465
TEVEL-7                 
1 51062U 22002CG  24203.48296095  .00630567  15736-3  20960-2 0  9995
2 51062  97.3673 281.6554 0009345 243.8206 116.2107 15.90213876140452
TEVEL-4                 
1 51063U 22002CH  24203.55508189  .00561930  12048-3  20751-2 0  9992
2 51063  97.3680 281.5524 0008834 241.3114 118.7270 15.88106275140459
TEVEL-2                 
1 51069U 22002CP  24203.26514756  .00633835  15828-3  21494-2 0  9991
2 51069  97.3669 281.3076 0009230 244.1198 115.9123 15.89819166140420
GREENCUBE               
1 53106U 22080B   24198.22903495 -.00000003  00000+0  00000+0 0  9997
2 53106  70.1332 182.4315 0007583 100.7878 259.3635  6.42557627 47133
KAI-1 (RS26S)           
1 53378U 22096J   24203.27848530  .00318338  00000+0  13766-2 0  9993
2 53378  97.3920 124.4989 0007873 131.9665 228.2277 15.84068365109603
CAS-5A (FO-118)         
1 54684U 22167C   24203.57410084  .00039503  00000+0  12595-2 0  9998
2 54684  97.6083 349.2744 0009294  26.9324 333.2398 15.32377247 89565
STRATOSAT-TK 1 (RS52S)  
1 57167U 23091B   24203.54535661  .00021399  00000+0  11901-2 0  9994
2 57167  97.6094 256.5444 0014160   7.6230 352.5213 15.13606714 58753
UMKA 1 (RS40S)          
1 57172U 23091G   24203.57537690  .00009396  00000+0  61163-3 0  9996
2 57172  97.6090 255.2792 0016495   9.5830 350.5710 15.08058289 58670
CUBESX-HSE 3 (RS42S)    
1 57178U 23091N   24203.56430951  .00013190  00000+0  82082-3 0  9993
2 57178  97.6130 255.7859 0016570   3.1269 357.0060 15.09620989 58695
MONITOR-4 (RS57S)       
1 57182U 23091S   24203.56313639  .00011894  00000+0  75121-3 0  9996
2 57182  97.6118 255.5746 0017024   4.3384 355.7989 15.09096523 58680
MONITOR-2 (RS39S)       
1 57184U 23091U   24203.60382746  .00007556  00000+0  49271-3 0  9995
2 57184  97.6130 255.7012 0013678   1.0026 359.1227 15.08102020 58695
SVYATOBOR 1 (RS60S)     
1 57187U 23091X   24203.58976027  .00010214  00000+0  63458-3 0  9994
2 57187  97.6126 256.1871 0012882 357.1614   2.9540 15.09792401 58729
VIZARD-METEO (RS38S)    
1 57189U 23091Z   24203.57856362  .00013846  00000+0  82337-3 0  9995
2 57189  97.6116 256.6246 0011612 354.0973   6.0118 15.11321551 58751
NANOZOND 1 (RS49S)      
1 57190U 23091AA  24203.58579343  .00019041  00000+0  10444-2 0  9991
2 57190  97.6093 257.2525 0009822 359.2201   0.9013 15.14172255 58806
POLYTECH-UNIVERSE 3 (R*)
1 57191U 23091AB  24203.54331167  .00008139  00000+0  52983-3 0  9999
2 57191  97.6096 255.3082 0019511  15.9581 344.2258 15.08056678 58673
UTMN 2 (RS27S)          
1 57203U 23091AP  24203.58109872  .00012382  00000+0  74784-3 0  9991
2 57203  97.6115 256.4649 0012018 354.5164   5.5932 15.10781340 58742
ARCCUBE 1 (RS25S)       
1 57205U 23091AR  24203.60257106  .00023078  00000+0  12191-2 0  9997
2 57205  97.6063 257.4253 0009773   0.5600 359.5642 15.15468155 58825
KUZGTU 1 (RS47S)        
1 57217U 23091AV  24203.57633239  .00012097  00000+0  75666-3 0  9997
2 57217  97.6100 255.6448 0016523   4.6101 355.5277 15.09456918 58690
HADES-D (SO-121)        
1 58567U 23174CY  24203.16046823  .00079123  00000+0  23920-2 0  9998
2 58567  97.4530 279.0805 0011233 115.6503 244.5901 15.33857538 38984
